KUIPER-00112            
1 65150U 25171U   25321.83337963 -.00289304  00000+0 -18758-1 0  9995
2 65150  51.8989 292.3576 0008952 139.6669 306.1913 15.09048762  5018
KUIPER-00114            
1 65151U 25171V   25321.69399987  .00006854  00000+0  92680-3 0  9997
2 65151  51.9000 310.8521 0006468  98.0175 262.1521 14.79944673 16054
KUIPER-00115            
1 65152U 25171W   25321.22939960  .00005828  00000+0  79285-3 0  9994
2 65152  51.9022 305.3833 0010655 118.3739 241.8299 14.79912592 16094
KUIPER-00116            
1 65153U 25171X   25319.70419296  .00247542  00000+0  32259-1 0  9999
2 65153  51.8991 317.1733 0009813  79.8232 280.3837 14.78667888 15798
KUIPER-00118            
1 65154U 25171Y   25320.98429947 -.00017926  00000+0 -23246-2 0  9996
2 65154  51.9016 313.9604 0002709 139.2956 220.8210 14.80003510 15951
KUIPER-00119            
1 65155U 25171Z   25321.83337963  .00042063  00000+0  49601-2 0  9999
2 65155  51.8978 297.8644 0008717 107.1034 359.3979 14.84311075  4532
KUIPER-00120            
1 65762U 25217A   25321.83337963 -.01128647  00000+0 -95671-1 0  9997
2 65762  51.8876 188.9041 0014349 280.7780 169.9827 15.00592090  2923
KUIPER-00132            
1 65763U 25217B   25321.34585858  .00045139  00000+0  12419-2 0  9993
2 65763  51.8638 187.5124 0005316 286.6264  73.4139 15.36719174  8130
